CCSDS_OMM_VERS = 2.0
CREATION_DATE  = 
ORIGINATOR     = 

OBJECT_NAME    = DELTA 2 R/B(1)
OBJECT_ID      = 1990-008B
CENTER_NAME    = EARTH
REF_FRAME      = TEME
TIME_SYSTEM    = UTC
MEAN_ELEMENT_THEORY = SGP/SGP4

EPOCH          = 2025-12-22T05:54:08.736480
MEAN_MOTION    = 15.45954332
ECCENTRICITY   = .01108131
INCLINATION    = 35.6081
RA_OF_ASC_NODE = 319.1127
ARG_OF_PERICENTER = 264.7533
MEAN_ANOMALY   = 94.0546

EPHEMERIS_TYPE = 0
CLASSIFICATION_TYPE = U
NORAD_CAT_ID   = 20453
ELEMENT_SET_NO = 999
REV_AT_EPOCH   = 91410
BSTAR          = .75066616E-3
MEAN_MOTION_DOT = .4816E-3
MEAN_MOTION_DDOT = 0

CCSDS_OMM_VERS = 2.0
CREATION_DATE  = 
ORIGINATOR     = 

OBJECT_NAME    = COSMOS 2058
OBJECT_ID      = 1990-010A
CENTER_NAME    = EARTH
REF_FRAME      = TEME
TIME_SYSTEM    = UTC
MEAN_ELEMENT_THEORY = SGP/SGP4

EPOCH          = 2025-12-23T02:12:32.213664
MEAN_MOTION    = 15.10568319
ECCENTRICITY   = .0009261
INCLINATION    = 82.4706
RA_OF_ASC_NODE = 122.8484
ARG_OF_PERICENTER = 232.5429
MEAN_ANOMALY   = 127.4959

EPHEMERIS_TYPE = 0
CLASSIFICATION_TYPE = U
NORAD_CAT_ID   = 20465
ELEMENT_SET_NO = 999
REV_AT_EPOCH   = 93067
BSTAR          = .32654E-3
MEAN_MOTION_DOT = .542E-4
MEAN_MOTION_DDOT = 0

CCSDS_OMM_VERS = 2.0
CREATION_DATE  = 
ORIGINATOR     = 

OBJECT_NAME    = SL-14 R/B
OBJECT_ID      = 1990-010B
CENTER_NAME    = EARTH
REF_FRAME      = TEME
TIME_SYSTEM    = UTC
MEAN_ELEMENT_THEORY = SGP/SGP4

EPOCH          = 2025-12-22T23:57:07.144704
MEAN_MOTION    = 14.83480471
ECCENTRICITY   = .0019503
INCLINATION    = 82.5021
RA_OF_ASC_NODE = 339.4121
ARG_OF_PERICENTER = 188.0266
MEAN_ANOMALY   = 172.0640

EPHEMERIS_TYPE = 0
CLASSIFICATION_TYPE = U
NORAD_CAT_ID   = 20466
ELEMENT_SET_NO = 999
REV_AT_EPOCH   = 91711
BSTAR          = .51877E-4
MEAN_MOTION_DOT = .451E-5
MEAN_MOTION_DDOT = 0

CCSDS_OMM_VERS = 2.0
CREATION_DATE  = 
ORIGINATOR     = 

OBJECT_NAME    = SL-14 R/B
OBJECT_ID      = 1990-018B
CENTER_NAME    = EARTH
REF_FRAME      = TEME
TIME_SYSTEM    = UTC
MEAN_ELEMENT_THEORY = SGP/SGP4

EPOCH          = 2025-12-23T01:50:58.729632
MEAN_MOTION    = 14.82056955
ECCENTRICITY   = .0016103
INCLINATION    = 82.5220
RA_OF_ASC_NODE = 294.7030
ARG_OF_PERICENTER = 349.8558
MEAN_ANOMALY   = 10.2329

EPHEMERIS_TYPE = 0
CLASSIFICATION_TYPE = U
NORAD_CAT_ID   = 20511
ELEMENT_SET_NO = 999
REV_AT_EPOCH   = 91123
BSTAR          = .60493E-4
MEAN_MOTION_DOT = .505E-5
MEAN_MOTION_DDOT = 0

CCSDS_OMM_VERS = 2.0
CREATION_DATE  = 
ORIGINATOR     = 

OBJECT_NAME    = HST
OBJECT_ID      = 1990-037B
CENTER_NAME    = EARTH
REF_FRAME      = TEME
TIME_SYSTEM    = UTC
MEAN_ELEMENT_THEORY = SGP/SGP4

EPOCH          = 2025-12-22T15:41:16.826208
MEAN_MOTION    = 15.28171998
ECCENTRICITY   = .0002277
INCLINATION    = 28.4656
RA_OF_ASC_NODE = 205.0037
ARG_OF_PERICENTER = 359.2579
MEAN_ANOMALY   = 0.8013

EPHEMERIS_TYPE = 0
CLASSIFICATION_TYPE = U
NORAD_CAT_ID   = 20580
ELEMENT_SET_NO = 999
REV_AT_EPOCH   = 76151
BSTAR          = .22996E-3
MEAN_MOTION_DOT = .6724E-4
MEAN_MOTION_DDOT = 0

CCSDS_OMM_VERS = 2.0
CREATION_DATE  = 
ORIGINATOR     = 

OBJECT_NAME    = SL-16 R/B
OBJECT_ID      = 1990-046B
CENTER_NAME    = EARTH
REF_FRAME      = TEME
TIME_SYSTEM    = UTC
MEAN_ELEMENT_THEORY = SGP/SGP4

EPOCH          = 2025-12-22T17:07:30.133344
MEAN_MOTION    = 14.14998119
ECCENTRICITY   = .00121182
INCLINATION    = 70.9992
RA_OF_ASC_NODE = 99.5763
ARG_OF_PERICENTER = 55.8223
MEAN_ANOMALY   = 304.4046

EPHEMERIS_TYPE = 0
CLASSIFICATION_TYPE = U
NORAD_CAT_ID   = 20625
ELEMENT_SET_NO = 999
REV_AT_EPOCH   = 83750
BSTAR          = -.86672642E-4
MEAN_MOTION_DOT = -.216E-5
MEAN_MOTION_DDOT = 0

CCSDS_OMM_VERS = 2.0
CREATION_DATE  = 
ORIGINATOR     = 

OBJECT_NAME    = COSMOS 2084
OBJECT_ID      = 1990-055A
CENTER_NAME    = EARTH
REF_FRAME      = TEME
TIME_SYSTEM    = UTC
MEAN_ELEMENT_THEORY = SGP/SGP4

EPOCH          = 2025-12-23T01:34:38.008416
MEAN_MOTION    = 15.05076920
ECCENTRICITY   = .0030064
INCLINATION    = 62.7891
RA_OF_ASC_NODE = 236.8079
ARG_OF_PERICENTER = 176.0877
MEAN_ANOMALY   = 184.0464

EPHEMERIS_TYPE = 0
CLASSIFICATION_TYPE = U
NORAD_CAT_ID   = 20663
ELEMENT_SET_NO = 999
REV_AT_EPOCH   = 92478
BSTAR          = .21479E-3
MEAN_MOTION_DOT = .2894E-4
MEAN_MOTION_DDOT = 0

CCSDS_OMM_VERS = 2.0
CREATION_DATE  = 
ORIGINATOR     = 

OBJECT_NAME    = SL-6 R/B(2)
OBJECT_ID      = 1990-055D
CENTER_NAME    = EARTH
REF_FRAME      = TEME
TIME_SYSTEM    = UTC
MEAN_ELEMENT_THEORY = SGP/SGP4

EPOCH          = 2025-12-22T19:30:38.860992
MEAN_MOTION    = 15.03117285
ECCENTRICITY   = .00138334
INCLINATION    = 62.7811
RA_OF_ASC_NODE = 155.1870
ARG_OF_PERICENTER = 315.6810
MEAN_ANOMALY   = 44.3181

EPHEMERIS_TYPE = 0
CLASSIFICATION_TYPE = U
NORAD_CAT_ID   = 20666
ELEMENT_SET_NO = 999
REV_AT_EPOCH   = 92663
BSTAR          = .1531148E-3
MEAN_MOTION_DOT = .1882E-4
MEAN_MOTION_DDOT = 0

CCSDS_OMM_VERS = 2.0
CREATION_DATE  = 
ORIGINATOR     = 

OBJECT_NAME    = SL-8 R/B
OBJECT_ID      = 1990-078B
CENTER_NAME    = EARTH
REF_FRAME      = TEME
TIME_SYSTEM    = UTC
MEAN_ELEMENT_THEORY = SGP/SGP4

EPOCH          = 2025-12-23T04:00:46.391904
MEAN_MOTION    = 14.86307679
ECCENTRICITY   = .0370405
INCLINATION    = 82.9061
RA_OF_ASC_NODE = 319.9730
ARG_OF_PERICENTER = 270.7989
MEAN_ANOMALY   = 85.0813

EPHEMERIS_TYPE = 0
CLASSIFICATION_TYPE = U
NORAD_CAT_ID   = 20775
ELEMENT_SET_NO = 999
REV_AT_EPOCH   = 79792
BSTAR          = .52646E-3
MEAN_MOTION_DOT = .17042E-3
MEAN_MOTION_DDOT = 0

CCSDS_OMM_VERS = 2.0
CREATION_DATE  = 
ORIGINATOR     = 

OBJECT_NAME    = SL-8 R/B
OBJECT_ID      = 1991-006B
CENTER_NAME    = EARTH
REF_FRAME      = TEME
TIME_SYSTEM    = UTC
MEAN_ELEMENT_THEORY = SGP/SGP4

EPOCH          = 2025-12-23T02:04:07.845024
MEAN_MOTION    = 13.77492084
ECCENTRICITY   = .0021219
INCLINATION    = 82.9417
RA_OF_ASC_NODE = 227.0170
ARG_OF_PERICENTER = 249.0506
MEAN_ANOMALY   = 275.9830

EPHEMERIS_TYPE = 0
CLASSIFICATION_TYPE = U
NORAD_CAT_ID   = 21088
ELEMENT_SET_NO = 999
REV_AT_EPOCH   = 75352
BSTAR          = .11173E-3
MEAN_MOTION_DOT = .126E-5
MEAN_MOTION_DDOT = 0

CCSDS_OMM_VERS = 2.0
CREATION_DATE  = 
ORIGINATOR     = 

OBJECT_NAME    = OKEAN-3
OBJECT_ID      = 1991-039A
CENTER_NAME    = EARTH
REF_FRAME      = TEME
TIME_SYSTEM    = UTC
MEAN_ELEMENT_THEORY = SGP/SGP4

EPOCH          = 2025-12-22T20:39:00.642240
MEAN_MOTION    = 15.04181013
ECCENTRICITY   = .0013567
INCLINATION    = 82.5168
RA_OF_ASC_NODE = 51.2517
ARG_OF_PERICENTER = 227.2385
MEAN_ANOMALY   = 132.7700

EPHEMERIS_TYPE = 0
CLASSIFICATION_TYPE = U
NORAD_CAT_ID   = 21397
ELEMENT_SET_NO = 999
REV_AT_EPOCH   = 85348
BSTAR          = .20127E-3
MEAN_MOTION_DOT = .2826E-4
MEAN_MOTION_DDOT = 0

CCSDS_OMM_VERS = 2.0
CREATION_DATE  = 
ORIGINATOR     = 

OBJECT_NAME    = COSMOS 2151
OBJECT_ID      = 1991-042A
CENTER_NAME    = EARTH
REF_FRAME      = TEME
TIME_SYSTEM    = UTC
MEAN_ELEMENT_THEORY = SGP/SGP4

EPOCH          = 2025-12-23T02:21:48.774816
MEAN_MOTION    = 14.99724071
ECCENTRICITY   = .0011746
INCLINATION    = 82.4964
RA_OF_ASC_NODE = 157.5203
ARG_OF_PERICENTER = 323.4223
MEAN_ANOMALY   = 36.6197

EPHEMERIS_TYPE = 0
CLASSIFICATION_TYPE = U
NORAD_CAT_ID   = 21422
ELEMENT_SET_NO = 999
REV_AT_EPOCH   = 85171
BSTAR          = .13656E-3
MEAN_MOTION_DOT = .1714E-4
MEAN_MOTION_DDOT = 0

